{"type": "FeatureCollection", "features": [ {"type": "Feature", "properties": {"norad_id": 38779, "name": "GSAT-10 (GAGAN/PRN 128)", "group": "gnss", "lat": 0.06670525803482377, "lon": -27.447335235986753, "alt_km": 35795.203071569755, "timestamp": "2025-12-17T10:52:54.595419+00:00", "meta": {"OBJECT_NAME": "GSAT-10 (GAGAN/PRN 128)", "OBJECT_ID": "2012-051B", "EPOCH": "2025-12-16T20:21:22.426272", "MEAN_MOTION": 1.00272767, "ECCENTRICITY": 0.00024936, "INCLINATION": 0.0804, "RA_OF_ASC_NODE": 265.9242, "ARG_OF_PERICENTER": 220.0533, "MEAN_ANOMALY": 348.1176, "EPHEMERIS_TYPE": 0, "CLASSIFICATION_TYPE": "U", "NORAD_CAT_ID": 38779, "ELEMENT_SET_NO": 999, "REV_AT_EPOCH": 4827, "BSTAR": 0, "MEAN_MOTION_DOT": -1.41e-06, "MEAN_MOTION_DDOT": 0}, "tle": {"line1": "1 38779U 12051B   25350.84817623 -.00000141  00000+0  00000+0 0  9992", "line2": "2 38779   0.0804 265.9242 0002493 220.0533 348.1176  1.00272767 48274"}}, "geometry": {"type": "Point", "coordinates": [-27.447335235986753, 0.06670525803482377]}}, {"type": "Feature", "properties": {"norad_id": 38833, "name": "GPS BIIF-3  (PRN 24)", "group": "gnss", "lat": 53.31004511879325, "lon": -126.22995961686414, "alt_km": 19740.27997007991, "timestamp": "2025-12-17T10:52:54.595432+00:00", "meta": {"OBJECT_NAME": "GPS BIIF-3  (PRN 24)", "OBJECT_ID": "2012-053A", "EPOCH": "2025-12-15T20:13:20.824032", "MEAN_MOTION": 2.00565066, "ECCENTRICITY": 0.01759247, "INCLINATION": 53.5583, "RA_OF_ASC_NODE": 151.1115, "ARG_OF_PERICENTER": 64.0399, "MEAN_ANOMALY": 297.7616, "EPHEMERIS_TYPE": 0, "CLASSIFICATION_TYPE": "U", "NORAD_CAT_ID": 38833, "ELEMENT_SET_NO": 999, "REV_AT_EPOCH": 9576, "BSTAR": 0, "MEAN_MOTION_DOT": 8e-07, "MEAN_MOTION_DDOT": 0}, "tle": {"line1": "1 38833U 12053A   25349.84260213  .00000080  00000+0  00000+0 0  9991", "line2": "2 38833  53.5583 151.1115 0175924  64.0399 297.7616  2.00565066 95765"}}, "geometry": {"type": "Point", "coordinates": [-126.22995961686414, 53.31004511879325]}}, {"type": "Feature", "properties": {"norad_id": 38857, "name": "GSAT0103 (GALILEO-FM3)", "group": "gnss", "lat": -50.63254383692148, "lon": -17.25036985307053, "alt_km": 23220.402511466466, "timestamp": "2025-12-17T10:52:54.595445+00:00", "meta": {"OBJECT_NAME": "GSAT0103 (GALILEO-FM3)", "OBJECT_ID": "2012-055A", "EPOCH": "2025-12-13T12:39:44.093088", "MEAN_MOTION": 1.70473367, "ECCENTRICITY": 0.00026827, "INCLINATION": 55.6929, "RA_OF_ASC_NODE": 106.6448, "ARG_OF_PERICENTER": 268.8486, "MEAN_ANOMALY": 91.0883, "EPHEMERIS_TYPE": 0, "CLASSIFICATION_TYPE": "U", "NORAD_CAT_ID": 38857, "ELEMENT_SET_NO": 999, "REV_AT_EPOCH": 8184, "BSTAR": 0, "MEAN_MOTION_DOT": 1e-08, "MEAN_MOTION_DDOT": 0}, "tle": {"line1": "1 38857U 12055A   25347.52759367  .00000001  00000+0  00000+0 0  9998", "line2": "2 38857  55.6929 106.6448 0002682 268.8486  91.0883  1.70473367 81846"}}, "geometry": {"type": "Point", "coordinates": [-17.25036985307053, -50.63254383692148]}}, {"type": "Feature", "properties": {"norad_id": 38953, "name": "BEIDOU-2 G6 (C02)", "group": "gnss", "lat": -3.8819847930038187, "lon": -26.552555705927816, "alt_km": 35758.83303807041, "timestamp": "2025-12-17T10:52:54.595457+00:00", "meta": {"OBJECT_NAME": "BEIDOU-2 G6 (C02)", "OBJECT_ID": "2012-059A", "EPOCH": "2025-12-16T18:53:36.756672", "MEAN_MOTION": 1.00269491, "ECCENTRICITY": 0.00081133, "INCLINATION": 3.9595, "RA_OF_ASC_NODE": 75.4664, "ARG_OF_PERICENTER": 291.2545, "MEAN_ANOMALY": 86.335, "EPHEMERIS_TYPE": 0, "CLASSIFICATION_TYPE": "U", "NORAD_CAT_ID": 38953, "ELEMENT_SET_NO": 999, "REV_AT_EPOCH": 4808, "BSTAR": 0, "MEAN_MOTION_DOT": -1.54e-06, "MEAN_MOTION_DDOT": 0}, "tle": {"line1": "1 38953U 12059A   25350.78723098 -.00000154  00000+0  00000+0 0  9993", "line2": "2 38953   3.9595  75.4664 0008113 291.2545  86.3350  1.00269491 48081"}}, "geometry": {"type": "Point", "coordinates": [-26.552555705927816, -3.8819847930038187]}}, {"type": "Feature", "properties": {"norad_id": 38977, "name": "LUCH 5B (SDCM/PRN 125)", "group": "gnss", "lat": -0.2869588180494406, "lon": -126.8168338935035, "alt_km": 35757.90261037176, "timestamp": "2025-12-17T10:52:54.595469+00:00", "meta": {"OBJECT_NAME": "LUCH 5B (SDCM/PRN 125)", "OBJECT_ID": "2012-061A", "EPOCH": "2025-12-16T09:51:19.957824", "MEAN_MOTION": 1.00272446, "ECCENTRICITY": 0.00068018, "INCLINATION": 10.0893, "RA_OF_ASC_NODE": 51.6712, "ARG_OF_PERICENTER": 194.1658, "MEAN_ANOMALY": 330.9636, "EPHEMERIS_TYPE": 0, "CLASSIFICATION_TYPE": "U", "NORAD_CAT_ID": 38977, "ELEMENT_SET_NO": 999, "REV_AT_EPOCH": 4777, "BSTAR": 0, "MEAN_MOTION_DOT": -1.23e-06, "MEAN_MOTION_DDOT": 0}, "tle": {"line1": "1 38977U 12061A   25350.41064766 -.00000123  00000+0  00000+0 0  9998", "line2": "2 38977  10.0893  51.6712 0006801 194.1658 330.9636  1.00272446 47779"}}, "geometry": {"type": "Point", "coordinates": [-126.8168338935035, -0.2869588180494406]}}, {"type": "Feature", "properties": {"norad_id": 39155, "name": "COSMOS 2485 (747)", "group": "gnss", "lat": 57.40437546851578, "lon": -146.17399115047087, "alt_km": 19152.59116603324, "timestamp": "2025-12-17T10:52:54.595483+00:00", "meta": {"OBJECT_NAME": "COSMOS 2485 (747)", "OBJECT_ID": "2013-019A", "EPOCH": "2025-12-16T08:50:22.354656", "MEAN_MOTION": 2.13103052, "ECCENTRICITY": 0.00246679, "INCLINATION": 65.3158, "RA_OF_ASC_NODE": 79.7449, "ARG_OF_PERICENTER": 229.7889, "MEAN_ANOMALY": 130.0094, "EPHEMERIS_TYPE": 0, "CLASSIFICATION_TYPE": "U", "NORAD_CAT_ID": 39155, "ELEMENT_SET_NO": 999, "REV_AT_EPOCH": 9838, "BSTAR": 0, "MEAN_MOTION_DOT": -5.4e-07, "MEAN_MOTION_DDOT": 0}, "tle": {"line1": "1 39155U 13019A   25350.36831429 -.00000054  00000+0  00000+0 0  9996", "line2": "2 39155  65.3158  79.7449 0024667 229.7889 130.0094  2.13103052 98385"}}, "geometry": {"type": "Point", "coordinates": [-146.17399115047087, 57.40437546851578]}}, {"type": "Feature", "properties": {"norad_id": 39166, "name": "GPS BIIF-4  (PRN 27)", "group": "gnss", "lat": -2.961755537129721, "lon": 98.46266398072218, "alt_km": 20439.27386855605, "timestamp": "2025-12-17T10:52:54.595495+00:00", "meta": {"OBJECT_NAME": "GPS BIIF-4  (PRN 27)", "OBJECT_ID": "2013-023A", "EPOCH": "2025-12-15T04:59:33.811872", "MEAN_MOTION": 2.00564736, "ECCENTRICITY": 0.01378529, "INCLINATION": 54.65, "RA_OF_ASC_NODE": 276.4679, "ARG_OF_PERICENTER": 48.4851, "MEAN_ANOMALY": 312.7012, "EPHEMERIS_TYPE": 0, "CLASSIFICATION_TYPE": "U", "NORAD_CAT_ID": 39166, "ELEMENT_SET_NO": 999, "REV_AT_EPOCH": 9219, "BSTAR": 0, "MEAN_MOTION_DOT": -6.8e-07, "MEAN_MOTION_DDOT": 0}, "tle": {"line1": "1 39166U 13023A   25349.20803023 -.00000068  00000+0  00000+0 0  9998", "line2": "2 39166  54.6500 276.4679 0137852  48.4851 312.7012  2.00564736 92194"}}, "geometry": {"type": "Point", "coordinates": [98.46266398072218, -2.961755537129721]}}, {"type": "Feature", "properties": {"norad_id": 39199, "name": "IRNSS-1A", "group": "gnss", "lat": -29.416226363517943, "lon": -60.852992006117965, "alt_km": 35703.61928101192, "timestamp": "2025-12-17T10:52:54.595507+00:00", "meta": {"OBJECT_NAME": "IRNSS-1A", "OBJECT_ID": "2013-034A", "EPOCH": "2025-12-16T18:45:30.034368", "MEAN_MOTION": 1.00271882, "ECCENTRICITY": 0.0023621, "INCLINATION": 35.3115, "RA_OF_ASC_NODE": 66.4956, "ARG_OF_PERICENTER": 207.6795, "MEAN_ANOMALY": 147.7415, "EPHEMERIS_TYPE": 0, "CLASSIFICATION_TYPE": "U", "NORAD_CAT_ID": 39199, "ELEMENT_SET_NO": 999, "REV_AT_EPOCH": 4553, "BSTAR": 0, "MEAN_MOTION_DOT": 6.3e-07, "MEAN_MOTION_DDOT": 0}, "tle": {"line1": "1 39199U 13034A   25350.78159762  .00000063  00000+0  00000+0 0  9999", "line2": "2 39199  35.3115  66.4956 0023621 207.6795 147.7415  1.00271882 45532"}}, "geometry": {"type": "Point", "coordinates": [-60.852992006117965, -29.416226363517943]}}, {"type": "Feature", "properties": {"norad_id": 39533, "name": "GPS BIIF-5  (PRN 30)", "group": "gnss", "lat": -3.699393527736503, "lon": -20.544924655809492, "alt_km": 20024.863295833602, "timestamp": "2025-12-17T10:52:54.595518+00:00", "meta": {"OBJECT_NAME": "GPS BIIF-5  (PRN 30)", "OBJECT_ID": "2014-008A", "EPOCH": "2025-12-16T04:46:33.160224", "MEAN_MOTION": 2.00574644, "ECCENTRICITY": 0.00793151, "INCLINATION": 53.6318, "RA_OF_ASC_NODE": 156.7835, "ARG_OF_PERICENTER": 226.5644, "MEAN_ANOMALY": 132.7818, "EPHEMERIS_TYPE": 0, "CLASSIFICATION_TYPE": "U", "NORAD_CAT_ID": 39533, "ELEMENT_SET_NO": 999, "REV_AT_EPOCH": 8601, "BSTAR": 0, "MEAN_MOTION_DOT": 8.7e-07, "MEAN_MOTION_DDOT": 0}, "tle": {"line1": "1 39533U 14008A   25350.19899491  .00000087  00000+0  00000+0 0  9994", "line2": "2 39533  53.6318 156.7835 0079315 226.5644 132.7818  2.00574644 86017"}}, "geometry": {"type": "Point", "coordinates": [-20.544924655809492, -3.699393527736503]}}, {"type": "Feature", "properties": {"norad_id": 39617, "name": "ASTRA 5B (EGNOS/PRN 123)", "group": "gnss", "lat": -0.0720898656615027, "lon": -86.93405427460834, "alt_km": 35767.455456510615, "timestamp": "2025-12-17T10:52:54.595529+00:00", "meta": {"OBJECT_NAME": "ASTRA 5B (EGNOS/PRN 123)", "OBJECT_ID": "2014-011B", "EPOCH": "2025-12-16T18:36:15.918336", "MEAN_MOTION": 1.00274629, "ECCENTRICITY": 0.00042003, "INCLINATION": 0.0684, "RA_OF_ASC_NODE": 44.7595, "ARG_OF_PERICENTER": 224.5568, "MEAN_ANOMALY": 118.9213, "EPHEMERIS_TYPE": 0, "CLASSIFICATION_TYPE": "U", "NORAD_CAT_ID": 39617, "ELEMENT_SET_NO": 999, "REV_AT_EPOCH": 4283, "BSTAR": 0, "MEAN_MOTION_DOT": 1.61e-06, "MEAN_MOTION_DDOT": 0}, "tle": {"line1": "1 39617U 14011B   25350.77518424  .00000161  00000+0  00000+0 0  9992", "line2": "2 39617   0.0684  44.7595 0004200 224.5568 118.9213  1.00274629 42831"}}, "geometry": {"type": "Point", "coordinates": [-86.93405427460834, -0.0720898656615027]}}]}